CENTISPACE-1 OBJECT H   
1 68357U 26060H   26082.51762410  .00000023  00000+0  34174-4 0  9994
2 68357  54.9849  25.2057 0014582 302.4369  57.5220 14.75422318   130
CENTISPACE-1 OBJECT K   
1 68359U 26060K   26082.51758216  .00000024  00000+0  34261-4 0  9993
2 68359  54.9797  25.2076 0014628 301.6776  58.2797 14.75493499   134
